start=new Date('2022-05-12T00:00:00.000Z').valueOf();
sats=[{"TLE_LINE2":"2 47878  53.0555  68.0583 0002099  46.6822 313.4341 15.06388703 65255","OBJECT_ID":"2021-021U","CENTER_NAME":"EARTH","MEAN_MOTION_DOT":"-0.00001661","PERIOD":"95.593","OBJECT_TYPE":"PAYLOAD","OBJECT_NAME":"STARLINK-2335","APOAPSIS":"548.702","GP_ID":"203309458","SITE":"AFETR","TLE_LINE1":"1 47878U 21021U   22131.56321651 -.00001661  00000-0 -92633-4 0  9991","INCLINATION":"53.0555","ELEMENT_SET_NO":"999","FILE":"3441154","LAUNCH_DATE":"2021-03-14","COUNTRY_CODE":"US","SEMIMAJOR_AXIS":"6925.383","BSTAR":"-0.00009263300000","ARG_OF_PERICENTER":"46.6822","EPOCH":"2022-05-11T13:31:01.906464","MEAN_ELEMENT_THEORY":"SGP4","PERIAPSIS":"545.795","RA_OF_ASC_NODE":"68.0583","REV_AT_EPOCH":"6525","RCS_SIZE":"LARGE","CLASSIFICATION_TYPE":"U","NORAD_CAT_ID":"47878","MEAN_ANOMALY":"313.4341","MEAN_MOTION":"15.06388703","TIME_SYSTEM":"UTC","MEAN_MOTION_DDOT":"0.0000000000000","REF_FRAME":"TEME","ECCENTRICITY":"0.00020990","EPHEMERIS_TYPE":"0","DECAY_DATE":null},{"OBJECT_ID":"2021-021V","TLE_LINE2":"2 47879  53.0556  83.0788 0002263  46.9724 313.1454 15.06385325 65426","CENTER_NAME":"EARTH","MEAN_MOTION_DOT":"-0.00002005","OBJECT_TYPE":"PAYLOAD","PERIOD":"95.593","OBJECT_NAME":"STARLINK-2336","GP_ID":"203276663","APOAPSIS":"548.826","INCLINATION":"53.0556","TLE_LINE1":"1 47879U 21021V   22131.55999206 -.00002005  00000-0 -11573-3 0  9994","SITE":"AFETR","ELEMENT_SET_NO":"999","COUNTRY_CODE":"US","SEMIMAJOR_AXIS":"6925.394","LAUNCH_DATE":"2021-03-14","FILE":"3440740","BSTAR":"-0.00011573000000","EPOCH":"2022-05-11T13:26:23.313984","ARG_OF_PERICENTER":"46.9724","MEAN_ELEMENT_THEORY":"SGP4","PERIAPSIS":"545.691","REV_AT_EPOCH":"6542","RCS_SIZE":"LARGE","RA_OF_ASC_NODE":"83.0788","CLASSIFICATION_TYPE":"U","NORAD_CAT_ID":"47879","MEAN_ANOMALY":"313.1454","MEAN_MOTION":"15.06385325","MEAN_MOTION_DDOT":"0.0000000000000","TIME_SYSTEM":"UTC","ECCENTRICITY":"0.00022630","REF_FRAME":"TEME","EPHEMERIS_TYPE":"0","DECAY_DATE":null},{"PERIOD":"95.592","OBJECT_TYPE":"PAYLOAD","MEAN_MOTION_DOT":"0.00000043","TLE_LINE2":"2 47880  53.0584  79.0789 0002657  45.4685 314.6520 15.06399227 65282","CENTER_NAME":"EARTH","OBJECT_ID":"2021-021W","APOAPSIS":"549.056","GP_ID":"203275423","OBJECT_NAME":"STARLINK-2337","ELEMENT_SET_NO":"999","SITE":"AFETR","INCLINATION":"53.0584","TLE_LINE1":"1 47880U 21021W   22131.33375522  .00000043  00000-0  21818-4 0  9993","ARG_OF_PERICENTER":"45.4685","EPOCH":"2022-05-11T08:00:36.451008","BSTAR":"0.00002181800000","LAUNCH_DATE":"2021-03-14","FILE":"3440740","SEMIMAJOR_AXIS":"6925.351","COUNTRY_CODE":"US","RA_OF_ASC_NODE":"79.0789","RCS_SIZE":"LARGE","REV_AT_EPOCH":"6528","MEAN_ELEMENT_THEORY":"SGP4","PERIAPSIS":"545.376","MEAN_ANOMALY":"314.6520","MEAN_MOTION":"15.06399227","NORAD_CAT_ID":"47880","CLASSIFICATION_TYPE":"U","TIME_SYSTEM":"UTC","MEAN_MOTION_DDOT":"0.0000000000000","DECAY_DATE":null,"EPHEMERIS_TYPE":"0","REF_FRAME":"TEME","ECCENTRICITY":"0.00026570"},{"RA_OF_ASC_NODE":"76.8963","RCS_SIZE":"LARGE","REV_AT_EPOCH":"6532","PERIAPSIS":"546.045","MEAN_ELEMENT_THEORY":"SGP4","MEAN_ANOMALY":"296.8338","MEAN_MOTION":"15.06389539","CLASSIFICATION_TYPE":"U","NORAD_CAT_ID":"47881","TIME_SYSTEM":"UTC","MEAN_MOTION_DDOT":"0.0000000000000","DECAY_DATE":null,"EPHEMERIS_TYPE":"0","REF_FRAME":"TEME","ECCENTRICITY":"0.00017340","PERIOD":"95.593","OBJECT_TYPE":"PAYLOAD","MEAN_MOTION_DOT":"-0.00000033","CENTER_NAME":"EARTH","TLE_LINE2":"2 47881  53.0561  76.8963 0001734  63.2828 296.8338 15.06389539 65327","OBJECT_ID":"2021-021X","APOAPSIS":"548.446","GP_ID":"203308708","OBJECT_NAME":"STARLINK-2339","ELEMENT_SET_NO":"999","SITE":"AFETR","TLE_LINE1":"1 47881U 21021X   22131.82399762 -.00000033  00000-0  16708-4 0  9992","INCLINATION":"53.0561","EPOCH":"2022-05-11T19:46:33.394368","ARG_OF_PERICENTER":"63.2828","BSTAR":"0.00001670800000","LAUNCH_DATE":"2021-03-14","FILE":"3441154","SEMIMAJOR_AXIS":"6925.381","COUNTRY_CODE":"US"},{"DECAY_DATE":null,"EPHEMERIS_TYPE":"0","ECCENTRICITY":"0.00015520","REF_FRAME":"TEME","MEAN_MOTION_DDOT":"0.0000000000000","TIME_SYSTEM":"UTC","MEAN_ANOMALY":"300.3402","MEAN_MOTION":"15.06388932","NORAD_CAT_ID":"47882","CLASSIFICATION_TYPE":"U","RCS_SIZE":"LARGE","REV_AT_EPOCH":"6567","RA_OF_ASC_NODE":"66.6981","MEAN_ELEMENT_THEORY":"SGP4","PERIAPSIS":"546.173","ARG_OF_PERICENTER":"59.7740","EPOCH":"2022-05-11T20:46:15.782880","BSTAR":"-0.00000195930000","SEMIMAJOR_AXIS":"6925.382","COUNTRY_CODE":"US","FILE":"3441154","LAUNCH_DATE":"2021-03-14","ELEMENT_SET_NO":"999","INCLINATION":"53.0568","TLE_LINE1":"1 47882U 21021Y   22131.86546045 -.00000311  00000-0 -19593-5 0  9991","SITE":"AFETR","GP_ID":"203309959","APOAPSIS":"548.322","OBJECT_NAME":"STARLINK-2340","OBJECT_TYPE":"PAYLOAD","PERIOD":"95.593","MEAN_MOTION_DOT":"-0.00000311","OBJECT_ID":"2021-021Y","TLE_LINE2":"2 47882  53.0568  66.6981 0001552  59.7740 300.3402 15.06388932 65670","CENTER_NAME":"EARTH"},{"SITE":"AFETR","INCLINATION":"53.0557","TLE_LINE1":"1 47883U 21021Z   22131.83734597  .00000500  00000-0  52503-4 0  9995","ELEMENT_SET_NO":"999","LAUNCH_DATE":"2021-03-14","FILE":"3440874","SEMIMAJOR_AXIS":"6925.356","COUNTRY_CODE":"US","ARG_OF_PERICENTER":"62.1770","EPOCH":"2022-05-11T20:05:46.691808","BSTAR":"0.00005250300000","MEAN_MOTION_DOT":"0.00000500","TLE_LINE2":"2 47883  53.0557  71.8233 0001773  62.1770 297.9399 15.06397596 64955","CENTER_NAME":"EARTH","OBJECT_ID":"2021-021Z","PERIOD":"95.592","OBJECT_TYPE":"PAYLOAD","OBJECT_NAME":"STARLINK-2342","APOAPSIS":"548.449","GP_ID":"203281536","TIME_SYSTEM":"UTC","MEAN_MOTION_DDOT":"0.0000000000000","REF_FRAME":"TEME","ECCENTRICITY":"0.00017730","DECAY_DATE":null,"EPHEMERIS_TYPE":"0","PERIAPSIS":"545.993","MEAN_ELEMENT_THEORY":"SGP4","RA_OF_ASC_NODE":"71.8233","RCS_SIZE":"LARGE","REV_AT_EPOCH":"6495","MEAN_ANOMALY":"297.9399","MEAN_MOTION":"15.06397596","NORAD_CAT_ID":"47883","CLASSIFICATION_TYPE":"U"},{"MEAN_MOTION_DOT":"-0.00000288","OBJECT_ID":"2021-021AA","TLE_LINE2":"2 47884  53.0573  78.1007 0002063  52.0578 308.0597 15.06390488 64834","CENTER_NAME":"EARTH","PERIOD":"95.593","OBJECT_TYPE":"PAYLOAD","OBJECT_NAME":"STARLINK-2343","APOAPSIS":"548.671","GP_ID":"203286359","SITE":"AFETR","INCLINATION":"53.0573","TLE_LINE1":"1 47884U 21021AA  22131.55492318 -.00000288  00000-0 -39512-6 0  9999","ELEMENT_SET_NO":"999","FILE":"3441048","LAUNCH_DATE":"2021-03-14","SEMIMAJOR_AXIS":"6925.378","COUNTRY_CODE":"US","ARG_OF_PERICENTER":"52.0578","EPOCH":"2022-05-11T13:19:05.362752","BSTAR":"-0.00000039512000","MEAN_ELEMENT_THEORY":"SGP4","PERIAPSIS":"545.814","RA_OF_ASC_NODE":"78.1007","RCS_SIZE":"LARGE","REV_AT_EPOCH":"6483","MEAN_ANOMALY":"308.0597","MEAN_MOTION":"15.06390488","CLASSIFICATION_TYPE":"U","NORAD_CAT_ID":"47884","TIME_SYSTEM":"UTC","MEAN_MOTION_DDOT":"0.0000000000000","REF_FRAME":"TEME","ECCENTRICITY":"0.00020630","DECAY_DATE":null,"EPHEMERIS_TYPE":"0"},{"MEAN_MOTION":"15.06405630","MEAN_ANOMALY":"305.4657","NORAD_CAT_ID":"47885","CLASSIFICATION_TYPE":"U","MEAN_ELEMENT_THEORY":"SGP4","PERIAPSIS":"545.902","RA_OF_ASC_NODE":"81.6254","RCS_SIZE":"LARGE","REV_AT_EPOCH":"6545","REF_FRAME":"TEME","ECCENTRICITY":"0.00018690","DECAY_DATE":null,"EPHEMERIS_TYPE":"0","TIME_SYSTEM":"UTC","MEAN_MOTION_DDOT":"0.0000000000000","OBJECT_NAME":"STARLINK-2344","APOAPSIS":"548.491","GP_ID":"203309208","MEAN_MOTION_DOT":"-0.00001332","TLE_LINE2":"2 47885  53.0562  81.6254 0001869  54.6507 305.4657 15.06405630 65452","CENTER_NAME":"EARTH","OBJECT_ID":"2021-021AB","PERIOD":"95.592","OBJECT_TYPE":"PAYLOAD","LAUNCH_DATE":"2021-03-14","FILE":"3441154","SEMIMAJOR_AXIS":"6925.331","COUNTRY_CODE":"US","ARG_OF_PERICENTER":"54.6507","EPOCH":"2022-05-11T21:08:08.471040","BSTAR":"-0.00007053800000","SITE":"AFETR","INCLINATION":"53.0562","TLE_LINE1":"1 47885U 21021AB  22131.88065360 -.00001332  00000-0 -70538-4 0  9991","ELEMENT_SET_NO":"999"},{"COUNTRY_CODE":"US","SEMIMAJOR_AXIS":"6925.393","FILE":"3441154","LAUNCH_DATE":"2021-03-14","BSTAR":"-0.00002049700000","EPOCH":"2022-05-11T21:08:07.814400","ARG_OF_PERICENTER":"48.6523","TLE_LINE1":"1 47886U 21021AC  22131.88064600 -.00000587  00000-0 -20497-4 0  9998","INCLINATION":"53.0571","SITE":"AFETR","ELEMENT_SET_NO":"999","OBJECT_NAME":"STARLINK-2345","GP_ID":"203309459","APOAPSIS":"548.682","TLE_LINE2":"2 47886  53.0571  71.6384 0002057  48.6523 311.4643 15.06385609 65441","OBJECT_ID":"2021-021AC","CENTER_NAME":"EARTH","MEAN_MOTION_DOT":"-0.00000587","OBJECT_TYPE":"PAYLOAD","PERIOD":"95.593","ECCENTRICITY":"0.00020570","REF_FRAME":"TEME","EPHEMERIS_TYPE":"0","DECAY_DATE":null,"MEAN_MOTION_DDOT":"0.0000000000000","TIME_SYSTEM":"UTC","NORAD_CAT_ID":"47886","CLASSIFICATION_TYPE":"U","MEAN_ANOMALY":"311.4643","MEAN_MOTION":"15.06385609","MEAN_ELEMENT_THEORY":"SGP4","PERIAPSIS":"545.833","REV_AT_EPOCH":"6544","RCS_SIZE":"LARGE","RA_OF_ASC_NODE":"71.6384"},{"REF_FRAME":"TEME","ECCENTRICITY":"0.00019160","EPHEMERIS_TYPE":"0","DECAY_DATE":null,"TIME_SYSTEM":"UTC","MEAN_MOTION_DDOT":"0.0000000000000","NORAD_CAT_ID":"47887","CLASSIFICATION_TYPE":"U","MEAN_MOTION":"15.06395524","MEAN_ANOMALY":"304.6924","PERIAPSIS":"545.900","MEAN_ELEMENT_THEORY":"SGP4","RA_OF_ASC_NODE":"76.8072","REV_AT_EPOCH":"6536","RCS_SIZE":"LARGE","LAUNCH_DATE":"2021-03-14","FILE":"3441154","COUNTRY_CODE":"US","SEMIMAJOR_AXIS":"6925.362","BSTAR":"-0.00002635200000","EPOCH":"2022-05-11T20:07:46.580448","ARG_OF_PERICENTER":"55.4246","SITE":"AFETR","INCLINATION":"53.0550","TLE_LINE1":"1 47887U 21021AD  22131.83873357 -.00000674  00000-0 -26352-4 0  9994","ELEMENT_SET_NO":"999","OBJECT_NAME":"STARLINK-2346","APOAPSIS":"548.554","GP_ID":"203310204","TLE_LINE2":"2 47887  53.0550  76.8072 0001916  55.4246 304.6924 15.06395524 65365","CENTER_NAME":"EARTH","OBJECT_ID":"2021-021AD","MEAN_MOTION_DOT":"-0.00000674","PERIOD":"95.592","OBJECT_TYPE":"PAYLOAD"}];
